PANDORA
1 67395U 80229J   26101.78851852  .00000000  00000-0  37770-3 0    05
2 67395  97.8065 101.4831 0004963   6.3975 295.5569 14.87954197    03
